{
    "links": {
        "self": "http://www.neowsapp.com/rest/v1/neo/54051036?api_key=iIulBulltgU6a56xZRHN4H3l9WmuAYTsLGpBGhQ2"
    },
    "id": "54051036",
    "neo_reference_id": "54051036",
    "name": "(2020 PJ2)",
    "designation": "2020 PJ2",
    "nasa_jpl_url": "http://ssd.jpl.nasa.gov/sbdb.cgi?sstr=54051036",
    "absolute_magnitude_h": 26.864,
    "estimated_diameter": {
        "kilometers": {
            "estimated_diameter_min": 0.0112656169,
            "estimated_diameter_max": 0.0251906851
        },
        "meters": {
            "estimated_diameter_min": 11.2656168515,
            "estimated_diameter_max": 25.1906850884
        },
        "miles": {
            "estimated_diameter_min": 0.0070001276,
            "estimated_diameter_max": 0.0156527612
        },
        "feet": {
            "estimated_diameter_min": 36.960686391,
            "estimated_diameter_max": 82.6466072654
        }
    },
    "is_potentially_hazardous_asteroid": false,
    "close_approach_data": [
        {
            "close_approach_date": "2020-08-16",
            "close_approach_date_full": "2020-Aug-16 05:02",
            "epoch_date_close_approach": 1597554120000,
            "relative_velocity": {
                "kilometers_per_second": "10.0083286058",
                "kilometers_per_hour": "36029.9829808429",
                "miles_per_hour": "22387.630258291"
            },
            "miss_distance": {
                "astronomical": "0.0129657597",
                "lunar": "5.0436805233",
                "kilometers": "1939650.034051839",
                "miles": "1205242.6433158182"
            },
            "orbiting_body": "Earth"
        }
    ],
    "orbital_data": {
        "orbit_id": "2",
        "orbit_determination_date": "2020-08-17 06:25:31",
        "first_observation_date": "2020-08-13",
        "last_observation_date": "2020-08-16",
        "data_arc_in_days": 3,
        "observations_used": 14,
        "orbit_uncertainty": "7",
        "minimum_orbit_intersection": ".00810103",
        "jupiter_tisserand_invariant": "3.430",
        "epoch_osculation": "2459000.5",
        "eccentricity": ".558632495862572",
        "semi_major_axis": "2.208067514067987",
        "inclination": "6.685292907359234",
        "ascending_node_longitude": "322.6387905497036",
        "orbital_period": "1198.441802999175",
        "perihelion_distance": ".9745692476511226",
        "perihelion_argument": "30.90063477593401",
        "aphelion_distance": "3.441565780484852",
        "perihelion_time": "2459101.569602161605",
        "mean_anomaly": "329.6396965733991",
        "mean_motion": ".3003900557366053",
        "equinox": "J2000",
        "orbit_class": {
            "orbit_class_type": "APO",
            "orbit_class_description": "Near-Earth asteroid orbits which cross the Earth’s orbit similar to that of 1862 Apollo",
            "orbit_class_range": "a (semi-major axis) > 1.0 AU; q (perihelion) < 1.017 AU"
        }
    },
    "is_sentry_object": false
}